NORAD_CAT_ID,OBJECT_NAME,OBJECT_TYPE,EPOCH,MEAN_MOTION,ECCENTRICITY,INCLINATION,RA_OF_ASC_NODE,ARG_OF_PERICENTER,MEAN_ANOMALY,BSTAR,MEAN_MOTION_DOT,MEAN_MOTION_DDOT,TLE_LINE0,TLE_LINE1,TLE_LINE2,SEMIMAJOR_AXIS,PERIOD,APOGEE,PERIGEE,DECAYED
51977.0,STARLINK-3660,PAYLOAD,2023-02-11 15:25:40,15.0884352,0.0001722,53.2163,16.1913,86.6298,273.4891,0.00070426,0.00010939,0.0,0 STARLINK-3660,1 51977U 22025X   23042.64282631  .00010939  00000-0  70426-3 0  9997,2 51977  53.2163  16.1913 0001722  86.6298 273.4891 15.08843520 53034,6917.87,95.437,540.926,538.543,0.0
51977.0,STARLINK-3660,PAYLOAD,2023-02-12 07:19:31,15.08833617,0.0001557,53.2155,13.217,89.0553,271.0618,0.00028897,4.313e-05,0.0,0 STARLINK-3660,1 51977U 22025X   23043.30522943  .00004313  00000-0  28897-3 0  9998,2 51977  53.2155  13.2170 0001557  89.0553 271.0618 15.08833617 53133,6917.9,95.438,540.842,538.688,0.0
51977.0,STARLINK-3660,PAYLOAD,2023-02-12 15:16:27,15.08815335,7.43e-05,53.2163,11.7319,70.6771,289.4301,-0.00014121,-2.533e-05,0.0,0 STARLINK-3660,1 51977U 22025X   23043.63643479 -.00002533  00000-0 -14121-3 0  9991,2 51977  53.2163  11.7319 0000743  70.6771 289.4301 15.08815335 53188,6917.956,95.439,540.335,539.307,0.0
51977.0,STARLINK-3660,PAYLOAD,2023-02-13 03:59:33,15.08831072,4.21e-05,53.2176,9.3515,71.9485,288.1553,0.00030662,4.594e-05,0.0,0 STARLINK-3660,1 51977U 22025X   23044.16635915  .00004594  00000-0  30662-3 0  9991,2 51977  53.2176   9.3515 0000421  71.9485 288.1553 15.08831072 53262,6917.908,95.438,540.064,539.481,0.0
51977.0,STARLINK-3660,PAYLOAD,2023-02-13 13:31:52,15.08832701,0.0001542,53.2162,7.5659,72.5569,287.5592,0.00051727,7.952e-05,0.0,0 STARLINK-3660,1 51977U 22025X   23044.56380284  .00007952  00000-0  51727-3 0  9997,2 51977  53.2162   7.5659 0001542  72.5569 287.5592 15.08832701 52233,6917.903,95.438,540.834,538.701,0.0
51977.0,STARLINK-3660,PAYLOAD,2023-02-14 03:50:20,15.08867546,0.0001025,53.2159,4.8914,85.7434,274.3675,0.002454,0.00039013,0.0,0 STARLINK-3660,1 51977U 22025X   23045.15995975  .00039013  00000-0  24540-2 0  9997,2 51977  53.2159   4.8914 0001025  85.7434 274.3675 15.08867546 53418,6917.796,95.436,540.37,538.952,0.0
51977.0,STARLINK-3660,PAYLOAD,2023-02-15 03:41:07,15.08857002,9.88e-05,53.2163,0.4311,66.3436,293.7659,0.0027302,0.00043451,0.0,0 STARLINK-3660,1 51977U 22025X   23046.15356245  .00043451  00000-0  27302-2 0  9999,2 51977  53.2163   0.4311 0000988  66.3436 293.7659 15.08857002 53569,6917.828,95.436,540.377,539.01,0.0
51977.0,STARLINK-3660,PAYLOAD,2023-02-15 21:10:22,15.08882594,0.0001209,53.2161,357.1592,67.775,292.337,0.0030676,0.00048929,0.0,0 STARLINK-3660,1 51977U 22025X   23046.88220106  .00048929  00000-0  30676-2 0  9998,2 51977  53.2161 357.1592 0001209  67.7750 292.3370 15.08882594 52581,6917.75,95.435,540.452,538.779,0.0
51977.0,STARLINK-3660,PAYLOAD,2023-02-16 00:21:08,15.08885118,8.65e-05,53.2161,356.5641,90.4799,269.6292,0.0026889,0.00042819,0.0,0 STARLINK-3660,1 51977U 22025X   23047.01467679  .00042819  00000-0  26889-2 0  9995,2 51977  53.2161 356.5641 0000865  90.4799 269.6292 15.08885118 53690,6917.742,95.435,540.206,539.009,0.0
51977.0,STARLINK-3660,PAYLOAD,2023-02-16 13:04:12,15.08860716,0.0002251,53.2172,354.1861,65.9925,294.1302,3.853e-05,3.25e-06,0.0,0 STARLINK-3660,1 51977U 22025X   23047.54459263  .00000325  00000-0  38530-4 0  9997,2 51977  53.2172 354.1861 0002251  65.9925 294.1302 15.08860716 52689,6917.817,95.436,541.239,538.125,0.0
51977.0,STARLINK-3660,PAYLOAD,2023-02-17 06:33:28,15.08823459,0.0001595,53.2163,350.9152,67.9781,292.1381,0.0023588,0.00037435,0.0,0 STARLINK-3660,1 51977U 22025X   23048.27324890  .00037435  00000-0  23588-2 0  9992,2 51977  53.2163 350.9152 0001595  67.9781 292.1381 15.08823459 53889,6917.931,95.439,540.899,538.693,0.0
51977.0,STARLINK-3660,PAYLOAD,2023-02-17 12:55:01,15.08818331,0.0001444,53.2165,349.7253,79.4371,280.6784,0.0011951,0.00018772,0.0,0 STARLINK-3660,1 51977U 22025X   23048.53821511  .00018772  00000-0  11951-2 0  9997,2 51977  53.2165 349.7253 0001444  79.4371 280.6784 15.08818331 53922,6917.947,95.439,540.811,538.813,0.0
51977.0,STARLINK-3660,PAYLOAD,2023-02-18 06:24:16,15.08861825,0.0001721,53.2164,346.454,79.9983,280.1203,0.002165,0.00034357,0.0,0 STARLINK-3660,1 51977U 22025X   23049.26685724  .00034357  00000-0  21650-2 0  9996,2 51977  53.2164 346.4540 0001721  79.9983 280.1203 15.08861825 54036,6917.814,95.436,540.869,538.488,0.0
51977.0,STARLINK-3660,PAYLOAD,2023-02-18 12:45:49,15.08855224,0.0001918,53.2163,345.262,91.0315,269.0896,0.0011299,0.00017748,0.0,0 STARLINK-3660,1 51977U 22025X   23049.53181799  .00017748  00000-0  11299-2 0  9992,2 51977  53.2163 345.2620 0001918  91.0315 269.0896 15.08855224 52985,6917.834,95.437,541.026,538.372,0.0
51977.0,STARLINK-3660,PAYLOAD,2023-02-19 12:36:35,15.08857072,0.0001553,53.2168,340.8046,94.4947,265.6223,0.00062559,9.687e-05,0.0,0 STARLINK-3660,1 51977U 22025X   23050.52541037  .00009687  00000-0  62559-3 0  9997,2 51977  53.2168 340.8046 0001553  94.4947 265.6223 15.08857072 54224,6917.828,95.436,540.768,538.619,0.0
51977.0,STARLINK-3660,PAYLOAD,2023-02-20 04:30:26,15.08855787,0.000139,53.2149,337.8292,107.6906,252.4238,0.00026682,3.963e-05,0.0,0 STARLINK-3660,1 51977U 22025X   23051.18780425  .00003963  00000-0  26682-3 0  9994,2 51977  53.2149 337.8292 0001390 107.6906 252.4238 15.08855787 54325,6917.832,95.437,540.659,538.736,0.0
51977.0,STARLINK-3660,PAYLOAD,2023-02-20 12:27:21,15.08857573,0.0001424,53.2147,336.3426,105.4301,254.6849,0.0002893,4.321e-05,0.0,0 STARLINK-3660,1 51977U 22025X   23051.51900108  .00004321  00000-0  28930-3 0  9990,2 51977  53.2147 336.3426 0001424 105.4301 254.6849 15.08857573 53280,6917.827,95.436,540.677,538.707,0.0
51977.0,STARLINK-3660,PAYLOAD,2023-02-20 23:35:04,15.08844709,0.000141,53.2174,334.2633,93.3014,266.814,3.6924e-05,3e-06,0.0,0 STARLINK-3660,1 51977U 22025X   23051.98268746  .00000300  00000-0  36924-4 0  9992,2 51977  53.2174 334.2633 0001410  93.3014 266.8140 15.08844709 54443,6917.866,95.437,540.706,538.756,0.0
51977.0,STARLINK-3660,PAYLOAD,2023-02-21 12:18:09,15.08845528,0.000128,53.2171,331.8841,85.5384,274.5755,0.00019471,2.813e-05,0.0,0 STARLINK-3660,1 51977U 22025X   23052.51260656  .00002813  00000-0  19471-3 0  9992,2 51977  53.2171 331.8841 0001280  85.5384 274.5755 15.08845528 53438,6917.863,95.437,540.614,538.843,0.0
51977.0,STARLINK-3660,PAYLOAD,2023-02-22 02:36:36,15.08862009,0.0001404,53.217,329.2085,81.1609,278.9542,0.00042452,6.479e-05,0.0,0 STARLINK-3660,1 51977U 22025X   23053.10875873  .00006479  00000-0  42452-3 0  9998,2 51977  53.2170 329.2085 0001404  81.1609 278.9542 15.08862009 54614,6917.813,95.436,540.649,538.707,0.0
51977.0,STARLINK-3660,PAYLOAD,2023-02-22 05:47:22,15.08866418,0.0001487,53.217,328.6134,79.6593,280.4567,0.00061237,9.478e-05,0.0,0 STARLINK-3660,1 51977U 22025X   23053.24123707  .00009478  00000-0  61237-3 0  9999,2 51977  53.2170 328.6134 0001487  79.6593 280.4567 15.08866418 53541,6917.8,95.436,540.693,538.636,0.0
51977.0,STARLINK-3660,PAYLOAD,2023-02-22 21:41:15,15.08821673,0.0001243,53.2162,325.6404,82.7543,277.3591,-0.00034196,-5.723e-05,0.0,0 STARLINK-3660,1 51977U 22025X   23053.90365356 -.00005723  00000-0 -34196-3 0  9995,2 51977  53.2162 325.6404 0001243  82.7543 277.3591 15.08821673 53646,6917.936,95.439,540.661,538.942,0.0
51977.0,STARLINK-3660,PAYLOAD,2023-02-23 04:02:48,15.08837737,0.0001207,53.2158,324.4501,89.8332,270.2798,0.00077923,0.00012134,0.0,0 STARLINK-3660,1 51977U 22025X   23054.16861378  .00012134  00000-0  77923-3 0  9996,2 51977  53.2158 324.4501 0001207  89.8332 270.2798 15.08837737 54774,6917.887,95.438,540.587,538.917,0.0
51977.0,STARLINK-3660,PAYLOAD,2023-02-23 18:21:16,15.08857752,0.0001153,53.2158,321.7741,94.615,265.4974,0.0014872,0.00023472,0.0,0 STARLINK-3660,1 51977U 22025X   23054.76477375  .00023472  00000-0  14872-2 0  9992,2 51977  53.2158 321.7741 0001153  94.6150 265.4974 15.08857752 53772,6917.826,95.436,540.489,538.894,0.0
51977.0,STARLINK-3660,PAYLOAD,2023-02-24 02:18:11,15.08879648,0.000109,53.2156,320.2875,92.0082,268.1035,0.0018164,0.0002877,0.0,0 STARLINK-3660,1 51977U 22025X   23055.09596680  .00028770  00000-0  18164-2 0  9994,2 51977  53.2156 320.2875 0001090  92.0082 268.1035 15.08879648 54911,6917.759,95.435,540.378,538.87,0.0
51977.0,STARLINK-3660,PAYLOAD,2023-02-24 18:12:02,15.08853252,0.0001867,53.2162,317.3123,87.7875,272.3331,0.00087092,0.00013605,0.0,0 STARLINK-3660,1 51977U 22025X   23055.75836746  .00013605  00000-0  87092-3 0  9995,2 51977  53.2162 317.3123 0001867  87.7875 272.3331 15.08853252 55015,6917.84,95.437,540.996,538.413,0.0
51977.0,STARLINK-3660,PAYLOAD,2023-02-25 00:33:35,15.08838729,0.0001069,53.2149,316.1242,64.6236,295.4867,0.00081797,0.00012754,0.0,0 STARLINK-3660,1 51977U 22025X   23056.02332859  .00012754  00000-0  81797-3 0  9992,2 51977  53.2149 316.1242 0001069  64.6236 295.4867 15.08838729 55054,6917.884,95.438,540.489,539.01,0.0
51977.0,STARLINK-3660,PAYLOAD,2023-02-25 03:44:21,15.0884229,0.0001163,53.2148,315.5292,63.5939,296.5172,0.0010847,0.00017018,0.0,0 STARLINK-3660,1 51977U 22025X   23056.15580853  .00017018  00000-0  10847-2 0  9990,2 51977  53.2148 315.5292 0001163  63.5939 296.5172 15.08842290 53983,6917.873,95.437,540.543,538.934,0.0
51977.0,STARLINK-3660,PAYLOAD,2023-02-25 21:13:36,15.08833848,4.5e-05,53.2152,312.2567,305.6608,54.4342,0.0010093,0.00015809,0.0,0 STARLINK-3660,1 51977U 22025X   23056.88445208  .00015809  00000-0  10093-2 0  9993,2 51977  53.2152 312.2567 0000450 305.6608  54.4342 15.08833848 54090,6917.899,95.438,540.075,539.453,0.0
51977.0,STARLINK-3660,PAYLOAD,2023-02-26 01:59:45,15.08845286,0.0001015,53.215,311.3644,85.5808,274.53,0.0018408,0.00029134,0.0,0 STARLINK-3660,1 51977U 22025X   23057.08316775  .00029134  00000-0  18408-2 0  9996,2 51977  53.2150 311.3644 0001015  85.5808 274.5300 15.08845286 55211,6917.864,95.437,540.431,539.027,0.0
